[{"OBJECT_NAME":"STARLINK-32602","OBJECT_ID":"2024-225U","EPOCH":"2026-03-09T14:47:34.378368","MEAN_MOTION":14.98328644,"ECCENTRICITY":0.0002931,"INCLINATION":70.0016,"RA_OF_ASC_NODE":154.6524,"ARG_OF_PERICENTER":260.3345,"MEAN_ANOMALY":99.7483,"EPHEMERIS_TYPE":0,"CLASSIFICATION_TYPE":"U","NORAD_CAT_ID":62181,"ELEMENT_SET_NO":999,"REV_AT_EPOCH":7011,"BSTAR":0.00038981,"MEAN_MOTION_DOT":4.561e-5,"MEAN_MOTION_DDOT":0},{"OBJECT_NAME":"CZ-6A DEB","OBJECT_ID":"2024-140LQ","EPOCH":"2026-03-09T12:39:56.979648","MEAN_MOTION":14.85929139,"ECCENTRICITY":0.01771612,"INCLINATION":88.9207,"RA_OF_ASC_NODE":273.583,"ARG_OF_PERICENTER":149.2711,"MEAN_ANOMALY":211.9037,"EPHEMERIS_TYPE":0,"CLASSIFICATION_TYPE":"U","NORAD_CAT_ID":60965,"ELEMENT_SET_NO":999,"REV_AT_EPOCH":8358,"BSTAR":0.00081105729,"MEAN_MOTION_DOT":9.447e-5,"MEAN_MOTION_DDOT":0}]
